#aV2021  4 16  0  0  0.00000000     288 DD+AD WGS84 FIT  NGA
## 2153 432000.00000000   300.00000000 59320 0.0000000000000
+   31     1  2  3  4  5  6  7  8  9 10 12 13 14 15 16 17 18
+         19 20 21 22 23 24 25 26 27 28 29 30 31 32  0  0  0
+          0  0  0  0  0  0  0  0  0  0  0  0  0  0  0  0  0
+          0  0  0  0  0  0  0  0  0  0  0  0  0  0  0  0  0
+          0  0  0  0  0  0  0  0  0  0  0  0  0  0  0  0  0
++         2  2  2  2  2  2  2  2  2  2  2  2  2  2  2  2  2
++         2  2  2  2  2  2  2  2  2  2  2  2  2  2  0  0  0
++         0  0  0  0  0  0  0  0  0  0  0  0  0  0  0  0  0
++         0  0  0  0  0  0  0  0  0  0  0  0  0  0  0  0  0
++         0  0  0  0  0  0  0  0  0  0  0  0  0  0  0  0  0
%c cc cc ccc ccc cccc cccc cccc cccc ccccc ccccc ccccc ccccc
%c cc cc ccc ccc cccc cccc cccc cccc ccccc ccccc ccccc ccccc
%f  0.0000000  0.000000000  0.00000000000  0.000000000000000
%f  0.0000000  0.000000000  0.00000000000  0.000000000000000
%i    0    0    0    0      0      0      0      0         0
%i    0    0    0    0      0      0      0      0         0
/*      NGA, ST. LOUIS,MO.                                  
/*   EPHEMERIS COMPUTED FROM 2 DAYS OF DATA                 
/*   EPOCHA v6 SMOOTHER                                     
/*   G2139 IERS2010 SATIGS SATAPC                           
*  2021  4 16 11  0  0.00000000
P  1 -22401.883768 -14454.273837   1956.390901    714.804730                    
V  1  -1203.844947  -3062.280862 -31907.892812     -0.099905                    
P  2   6630.300162  18749.520276  18238.816757   -596.137366                    
V  2 -19492.419372 -10010.607051  18078.405362     -0.034135                    
P  3 -12961.319802 -11231.988152  20229.020032   -138.311581                    
V  3   3222.038671 -25628.709765 -12008.508880     -0.105991                    
P  4 -19858.780659  -4551.732772  17078.491338   -192.072959                    
V  4  19258.636875 -10039.637484  19670.974832     -0.019334                    
P  5   5415.396673  24185.162502  -9447.484426    -39.237161                    
V  5  -3419.464879  11684.806050  28588.509067     -0.010773                    
P  6  -6114.070927  13619.706636  22025.185624      7.669743                    
V  6 -22834.006162 -15778.802835   3486.463573      0.028921                    
P  7 -22415.834977  -4020.409016 -13719.822338    123.659794                    
V  7 -13255.083736 -12118.472619  24102.240910      0.114964                    
P  8 -12669.761583 -10032.510993 -21136.786845    -17.695937                    
V  8  23826.478468 -12162.724467  -8212.944630     -0.013517                    
P  9 -24576.815342   5067.079205   8685.352000   -339.280140                    
V  9   8778.690841  -7367.958898  28916.341203     -0.027160                    
P 10  11668.638824 -18644.491136 -14579.139224   -103.080385                    
V 10    506.374180  18918.087753 -23858.705897     -0.077438                    
P 12  10659.760180  14953.595500  18990.433397    -28.515417                    
V 12  -5075.053493  24065.462546 -15746.167663     -0.050942                    
P 13   2601.450439  14977.031667 -21905.332977    120.587101                    
V 13 -26298.565545   7982.916406   2476.117888      0.046142                    
P 14 -13038.102529  17594.666936 -15026.730034     95.640346                    
V 14    431.899551 -19190.672340 -22883.410572     -0.028815                    
P 15  14357.679051   9366.658801 -20715.798309   -155.808393                    
V 15 -21366.455710  14040.330185  -8254.080209      0.026128                    
P 16   -153.776918 -25464.868369  -6888.936604   -310.533661                    
V 16   4089.332502  -7922.043493  30713.142761     -0.059186                    
P 17 -21284.644358  14022.159756   7890.886798    427.263015                    
V 17  -9463.740427   1667.191418 -30124.539728      0.062103                    
P 18  20370.733529    386.510930 -17079.459903    351.616936                    
V 18  16485.792903  14093.826646  19930.064792     -0.000833                    
P 19 -15612.528248  15559.728275  14455.461209    -12.237454                    
V 19 -18423.179794   4400.378235 -24260.787641      0.050110                    
P 20  15507.856019   6585.536035 -20586.492012    523.121100                    
V 20    605.177394  26163.293265   8547.385341     -0.003875                    
P 21 -20541.011213 -16293.416135  -4874.777932    111.383514                    
V 21   7345.838329   1389.786301 -30567.930167      0.028254                    
P 22 -10846.557837 -19733.925157  14421.525416   -636.650539                    
V 22   2365.694988 -18002.701913 -22983.871105      0.088087                    
P 23  14849.836634  -7737.638841 -20626.115402    113.184018                    
V 23   -728.991358  26154.745248 -10389.169540     -0.021462                    
P 24  21212.000894  15972.847336  -3681.500016     10.372059                    
V 24  -5371.126766    494.175353 -30475.960559      0.348559                    
P 25  15091.669417    398.953856  21581.008303    119.600236                    
V 25  -2210.292932  27958.147326   1282.505475      0.072685                    
P 26   3900.897161 -25851.261949   3735.549008     72.886810                    
V 26   3365.337904   5020.422785  31026.026530      0.051559                    
P 27    -92.537221 -15898.668567 -21381.497420   -113.680791                    
V 27  24592.353800 -10621.045041   8214.480344     -0.068243                    
P 28 -12017.790236  20232.130986 -11967.651873    585.942135                    
V 28    884.510256 -16069.757940 -26650.677781     -0.058592                    
P 29  24977.481899  -3541.826548   8331.422837   -330.952035                    
V 29  -9248.153546   5529.115626  29863.380982     -0.066982                    
P 30 -14451.618915   8207.333698 -20704.955882   -413.568869                    
V 30 -20775.060067 -16401.333437   7746.754508     -0.052261                    
P 31   4042.009907 -15477.491469  21046.681709   -111.901331                    
V 31  22246.209885  15354.348602   7446.187741     -0.022220                    
P 32  19214.882364 -15979.332310   8845.120472     22.086750                    
V 32  11262.965662  -2238.261530 -29030.240469     -0.000420                    
EOF
